NORAD_CAT_ID,OBJECT_NAME,OBJECT_TYPE,EPOCH,MEAN_MOTION,ECCENTRICITY,INCLINATION,RA_OF_ASC_NODE,ARG_OF_PERICENTER,MEAN_ANOMALY,BSTAR,MEAN_MOTION_DOT,MEAN_MOTION_DDOT,TLE_LINE0,TLE_LINE1,TLE_LINE2,SEMIMAJOR_AXIS,PERIOD,APOGEE,PERIGEE,DECAYED
55960.0,STARLINK-5938,PAYLOAD,2023-09-12 14:00:01,15.48000475,0.0003406,70.0004,39.0102,272.0395,251.738,-0.01969,-0.00947451,0.0,0 STARLINK-5938,1 55960U 23037AY  23255.58335648 -.00947451  00000-0 -19690-1 0  9997,2 55960  70.0004  39.0102 0003406 272.0395 251.7380 15.48000475 28576,6800.713,93.023,424.894,420.262,0.0
55960.0,STARLINK-5938,PAYLOAD,2023-09-12 22:00:00,15.47330393,0.0003386,69.9999,38.1037,274.7155,305.6317,-0.019461,-0.00917335,0.0,0 STARLINK-5938,1 55960U 23037AY  23255.91667824 -.00917335  00000-0 -19461-1 0  9992,2 55960  69.9999  38.1037 0003386 274.7155 305.6317 15.47330393  6011,6802.676,93.064,426.845,422.238,0.0
55960.0,STARLINK-5938,PAYLOAD,2023-09-13 14:00:01,15.46045176,0.0003486,70.0007,36.2934,271.865,59.3867,-0.021136,-0.00950042,0.0,0 STARLINK-5938,1 55960U 23037AY  23256.58334491 -.00950042  00000-0 -21136-1 0  9991,2 55960  70.0007  36.2934 0003486 271.8650  59.3867 15.46045176 28735,6806.446,93.141,430.683,425.938,0.0
55960.0,STARLINK-5938,PAYLOAD,2023-09-13 22:00:00,15.45380258,0.0003514,70.0004,35.3896,276.8773,108.66,-0.021067,-0.00927471,0.0,0 STARLINK-5938,1 55960U 23037AY  23256.91667824 -.00927471  00000-0 -21067-1 0  9990,2 55960  70.0004  35.3896 0003514 276.8773 108.6600 15.45380258  5978,6808.398,93.181,432.655,427.871,0.0
55960.0,STARLINK-5938,PAYLOAD,2023-09-14 14:00:01,15.44086005,0.0003373,70.0008,33.5848,274.6704,217.1456,-0.022568,-0.00948643,0.0,0 STARLINK-5938,1 55960U 23037AY  23257.58335648 -.00948643  00000-0 -22568-1 0  9991,2 55960  70.0008  33.5848 0003373 274.6704 217.1456 15.44086005 28884,6812.202,93.259,436.365,431.769,0.0
55960.0,STARLINK-5938,PAYLOAD,2023-09-14 22:00:00,15.43431237,0.0003252,70.0006,32.6837,277.017,266.6697,-0.022882,-0.00941308,0.0,0 STARLINK-5938,1 55960U 23037AY  23257.91667824 -.00941308  00000-0 -22882-1 0  9992,2 55960  70.0006  32.6837 0003252 277.0170 266.6697 15.43431237  6028,6814.128,93.299,438.209,433.778,0.0
55960.0,STARLINK-5938,PAYLOAD,2023-09-15 06:00:00,15.42725132,0.0003284,70.0009,31.7837,269.8725,324.9809,-0.020997,-0.0085059,0.0,0 STARLINK-5938,1 55960U 23037AY  23258.25001157 -.00850590  00000-0 -20997-1 0  9998,2 55960  70.0009  31.7837 0003284 269.8725 324.9809 15.42725132 28993,6816.208,93.341,440.311,435.834,0.0
55960.0,STARLINK-5938,PAYLOAD,2023-09-15 14:00:01,15.42120703,0.0003433,70.001,30.8846,273.5565,11.6568,-0.023752,-0.00935429,0.0,0 STARLINK-5938,1 55960U 23037AY  23258.58334491 -.00935429  00000-0 -23752-1 0  9991,2 55960  70.0010  30.8846 0003433 273.5565  11.6568 15.42120703  5984,6817.988,93.378,442.194,437.513,0.0
55960.0,STARLINK-5938,PAYLOAD,2023-09-15 22:00:00,15.4147748,0.0003549,70.0008,29.9861,277.3082,57.4883,-0.024609,-0.00947483,0.0,0 STARLINK-5938,1 55960U 23037AY  23258.91667824 -.00947483  00000-0 -24609-1 0  9992,2 55960  70.0008  29.9861 0003549 277.3082  57.4883 15.41477480 29093,6819.885,93.417,444.17,439.33,0.0
55960.0,STARLINK-5938,PAYLOAD,2023-09-16 14:00:01,15.40165697,0.0003555,70.0015,28.1922,276.8434,154.7868,-0.025502,-0.00940546,0.0,0 STARLINK-5938,1 55960U 23037AY  23259.58334491 -.00940546  00000-0 -25502-1 0  9993,2 55960  70.0015  28.1922 0003555 276.8434 154.7868 15.40165697 29190,6823.757,93.496,448.048,443.196,0.0
55960.0,STARLINK-5938,PAYLOAD,2023-09-17 14:00:01,15.38202619,0.0003384,70.0016,25.5073,275.4323,295.5769,-0.02687,-0.00929891,0.0,0 STARLINK-5938,1 55960U 23037AY  23260.58334491 -.00929891  00000-0 -26870-1 0  9994,2 55960  70.0016  25.5073 0003384 275.4323 295.5769 15.38202619 29345,6829.561,93.616,453.737,449.115,0.0
55960.0,STARLINK-5938,PAYLOAD,2023-09-18 14:00:01,15.36243341,0.0003492,70.0015,22.8306,275.9876,67.3581,-0.028446,-0.00924256,0.0,0 STARLINK-5938,1 55960U 23037AY  23261.58334491 -.00924256  00000-0 -28446-1 0  9996,2 55960  70.0015  22.8306 0003492 275.9876  67.3581 15.36243341  6023,6835.367,93.735,459.619,454.845,0.0
55960.0,STARLINK-5938,PAYLOAD,2023-09-18 22:00:00,15.35608855,0.0003479,70.0012,21.9402,279.8965,105.9894,-0.029978,-0.00951816,0.0,0 STARLINK-5938,1 55960U 23037AY  23261.91667824 -.00951816  00000-0 -29978-1 0  9995,2 55960  70.0012  21.9402 0003479 279.8965 105.9894 15.35608855 29557,6837.25,93.774,461.493,456.736,0.0
55960.0,STARLINK-5938,PAYLOAD,2023-09-19 14:00:01,15.3428071,0.000345,70.0012,20.1622,279.6413,189.0018,-0.029988,-0.0091566,0.0,0 STARLINK-5938,1 55960U 23037AY  23262.58334491 -.00915660  00000-0 -29988-1 0  9998,2 55960  70.0012  20.1622 0003450 279.6413 189.0018 15.34280710 29654,6841.195,93.855,465.42,460.7,0.0
55960.0,STARLINK-5938,PAYLOAD,2023-09-20 14:00:01,15.32319529,0.0003312,70.0011,17.5016,276.6879,310.2126,-0.031605,-0.00907589,0.0,0 STARLINK-5938,1 55960U 23037AY  23263.58334491 -.00907589  00000-0 -31605-1 0  9999,2 55960  70.0011  17.5016 0003312 276.6879 310.2126 15.32319529 29815,6847.031,93.975,471.164,466.628,0.0
55960.0,STARLINK-5938,PAYLOAD,2023-09-20 22:00:00,15.31696298,0.0003281,70.0008,16.6162,276.1017,348.6428,-0.034192,-0.0097051,0.0,0 STARLINK-5938,1 55960U 23037AY  23263.91667824 -.00970510  00000-0 -34192-1 0  9993,2 55960  70.0008  16.6162 0003281 276.1017 348.6428 15.31696298  6014,6848.888,94.013,473.0,468.506,0.0
55960.0,STARLINK-5938,PAYLOAD,2023-09-21 14:00:01,15.31856665,0.0003743,70.001,14.8464,275.8985,64.2262,0.00018108,5.459e-05,0.0,0 STARLINK-5938,1 55960U 23037AY  23264.58334491  .00005459  00000-0  18108-3 0  9998,2 55960  70.0010  14.8464 0003743 275.8985  64.2262 15.31856665 29967,6848.41,94.004,472.838,467.712,0.0
55960.0,STARLINK-5938,PAYLOAD,2023-09-21 22:00:01,15.31889309,0.0003778,70.0007,13.961,276.7072,101.1657,-0.0013398,-0.00041276,0.0,0 STARLINK-5938,1 55960U 23037AY  23264.91668981 -.00041276  00000-0 -13398-2 0  9993,2 55960  70.0007  13.9610 0003778 276.7072 101.1657 15.31889309  5606,6848.313,94.002,472.765,467.59,0.0
55960.0,STARLINK-5938,PAYLOAD,2023-09-22 14:00:01,15.31885999,0.0003847,70.0011,12.1909,275.79,177.4505,0.00027588,8.396e-05,0.0,0 STARLINK-5938,1 55960U 23037AY  23265.58334491  .00008396  00000-0  27588-3 0  9994,2 55960  70.0011  12.1909 0003847 275.7900 177.4505 15.31885999 30112,6848.323,94.002,472.822,467.553,0.0
55960.0,STARLINK-5938,PAYLOAD,2023-09-22 22:00:00,15.3192063,0.0003861,70.0006,11.3056,276.1036,214.8577,-0.0013286,-0.00040974,0.0,0 STARLINK-5938,1 55960U 23037AY  23265.91667824 -.00040974  00000-0 -13286-2 0  9999,2 55960  70.0006  11.3056 0003861 276.1036 214.8577 15.31920630  5761,6848.219,94.0,472.728,467.44,0.0
55960.0,STARLINK-5938,PAYLOAD,2023-09-23 14:00:01,15.32073636,0.0003658,70.001,9.535,274.0231,292.3778,-0.019787,-0.00570313,0.0,0 STARLINK-5938,1 55960U 23037AY  23266.58334491 -.00570313  00000-0 -19787-1 0  9990,2 55960  70.0010   9.5350 0003658 274.0231 292.3778 15.32073636 30274,6847.763,93.99,472.133,467.124,0.0
55960.0,STARLINK-5938,PAYLOAD,2023-09-23 22:00:01,15.31680861,0.0003461,70.0007,8.65,274.5616,329.6169,-0.033802,-0.00947762,0.0,0 STARLINK-5938,1 55960U 23037AY  23266.91668981 -.00947762  00000-0 -33802-1 0  9991,2 55960  70.0007   8.6500 0003461 274.5616 329.6169 15.31680861 30328,6848.934,94.014,473.169,468.429,0.0
55960.0,STARLINK-5938,PAYLOAD,2023-09-24 11:03:32,15.31186543,0.0003164,69.9995,7.2105,275.3096,84.7719,-0.00284,-0.00084961,0.0,0 STARLINK-5938,1 55960U 23037AY  23267.46078933 -.00084961  00000-0 -28400-2 0  9996,2 55960  69.9995   7.2105 0003164 275.3096  84.7719 15.31186543 30405,6850.408,94.045,474.44,470.106,0.0
55960.0,STARLINK-5938,PAYLOAD,2023-09-24 14:11:47,15.31097905,0.0003379,69.9997,6.8648,294.3251,65.7571,-0.0031407,-0.00093581,0.0,0 STARLINK-5938,1 55960U 23037AY  23267.59151684 -.00093581  00000-0 -31407-2 0  9994,2 55960  69.9997   6.8648 0003379 294.3251  65.7571 15.31097905 30088,6850.672,94.05,474.852,470.223,0.0
55960.0,STARLINK-5938,PAYLOAD,2023-09-24 17:19:56,15.31074247,0.000366,69.9995,6.5178,281.9349,78.1416,-0.003148,-0.00093731,0.0,0 STARLINK-5938,1 55960U 23037AY  23267.72218140 -.00093731  00000-0 -31480-2 0  9998,2 55960  69.9995   6.5178 0003660 281.9349  78.1416 15.31074247 30444,6850.743,94.052,475.115,470.101,0.0
55960.0,STARLINK-5938,PAYLOAD,2023-09-25 06:00:00,15.29047765,0.0003423,70.0012,5.1178,272.5099,115.1592,-0.034245,-0.00889679,0.0,0 STARLINK-5938,1 55960U 23037AY  23268.25001157 -.00889679  00000-0 -34245-1 0  9990,2 55960  70.0012   5.1178 0003423 272.5099 115.1592 15.29047765 30525,6856.795,94.176,481.007,476.313,0.0
55960.0,STARLINK-5938,PAYLOAD,2023-09-25 14:00:01,15.28396145,0.0003451,70.0012,4.2369,279.2988,142.3728,-0.035527,-0.0090346,0.0,0 STARLINK-5938,1 55960U 23037AY  23268.58335648 -.00903460  00000-0 -35527-1 0  9990,2 55960  70.0012   4.2369 0003451 279.2988 142.3728 15.28396145  5971,6858.743,94.216,482.975,478.241,0.0
55960.0,STARLINK-5938,PAYLOAD,2023-09-25 22:00:00,15.27768053,0.0003341,70.001,3.357,279.4906,175.26,-0.038198,-0.00960873,0.0,0 STARLINK-5938,1 55960U 23037AY  23268.91667824 -.00960873  00000-0 -38198-1 0  9999,2 55960  70.0010   3.3570 0003341 279.4906 175.2600 15.27768053 30627,6860.623,94.255,484.78,480.196,0.0
55960.0,STARLINK-5938,PAYLOAD,2023-09-26 14:00:01,15.26435646,0.00033,70.0013,1.6,280.6118,238.1647,-0.037467,-0.00897888,0.0,0 STARLINK-5938,1 55960U 23037AY  23269.58335648 -.00897888  00000-0 -37467-1 0  9992,2 55960  70.0013   1.6000 0003300 280.6118 238.1647 15.26435646 30722,6864.615,94.337,488.745,484.215,0.0
55960.0,STARLINK-5938,PAYLOAD,2023-09-26 22:00:00,15.25810782,0.0003262,70.0012,0.7226,279.0201,270.487,-0.040561,-0.00961329,0.0,0 STARLINK-5938,1 55960U 23037AY  23269.91667824 -.00961329  00000-0 -40561-1 0  9994,2 55960  70.0012   0.7226 0003262 279.0201 270.4870 15.25810782  5965,6866.489,94.376,490.594,486.114,0.0
